IRNSS-1C                
1 40269U 14061A   24165.45034931 -.00000153  00000+0  00000+0 0  9998
2 40269   4.6617 104.8402 0021302   4.4673  38.0989  1.00270068 35333
GPS BIIF-8  (PRN 03)    
1 40294U 14068A   24165.01829968 -.00000077  00000+0  00000+0 0  9992
2 40294  56.4174  59.4028 0053768  61.9256 298.6528  2.00559616 70487
COSMOS 2501 (702K)      
1 40315U 14075A   24165.37919054  .00000028  00000+0  00000+0 0  9994
2 40315  63.6211 215.8089 0020752 210.5771 149.3753  2.13101576 74218
GPS BIIF-9  (PRN 26)    
1 40534U 15013A   24163.15545816 -.00000013  00000+0  00000+0 0  9990
2 40534  53.3451 234.6481 0087635  29.7468 330.8202  2.00565900 67066
GSAT0203 (PRN E26)      
1 40544U 15017A   24163.05011168 -.00000097  00000+0  00000+0 0  9994
2 40544  56.9241   1.6332 0001444 271.0660  88.9452  1.70476074 56650
GSAT0204 (PRN E22)      
1 40545U 15017B   24165.06405854 -.00000091  00000+0  00000+0 0  9991
2 40545  56.9303   1.5939 0001285 225.0854 134.9334  1.70475780 19731
IRNSS-1D                
1 40547U 15018A   24164.66315510 -.00000284  00000+0  00000+0 0  9992
2 40547  27.4952 252.7881 0022973 190.5887 168.8760  1.00271013 33619
BEIDOU-3S IGSO-1S (C31) 
1 40549U 15019A   24164.87893712 -.00000160  00000+0  00000+0 0  9996
2 40549  50.5822 304.2411 0038353 191.9244 172.5608  1.00251787 33706
GPS BIIF-10 (PRN 08)    
1 40730U 15033A   24164.81297509 -.00000072  00000+0  00000+0 0  9992
2 40730  54.6005 297.2334 0093971  19.6972 340.6590  2.00567325 65265
BEIDOU-3S M2S (C58)     
1 40748U 15037A   24162.08288149 -.00000095  00000+0  00000+0 0  9997
2 40748  55.4830 327.2751 0008259 248.6108 111.2886  1.86233314 60396
BEIDOU-3S M1S (C57)     
1 40749U 15037B   24163.96411891 -.00000091  00000+0  00000+0 0  9994
2 40749  55.4847 327.1984 0003426   1.7521 358.2409  1.86233092 60432
GSAT0205 (PRN E24)      
1 40889U 15045A   24163.07251553 -.00000008  00000+0  00000+0 0  9995
2 40889  55.2198 241.9396 0003147  25.9517 334.1341  1.70474057 54462
GSAT0206 (PRN E30)      
1 40890U 15045B   24158.01390575  .00000004  00000+0  00000+0 0  9998
2 40890  55.2210 242.0747 0001124 354.7070   5.3540  1.70473725 54404
BEIDOU-3S IGSO-2S (C56) 
1 40938U 15053A   24163.70173345 -.00000145  00000+0  00000+0 0  9993
2 40938  50.3659 267.4694 0052617 189.7428 151.6078  1.00263909 31970
GPS BIIF-11 (PRN 10)    
1 41019U 15062A   24164.87170023 -.00000077  00000+0  00000+0 0  9997
2 41019  56.3977  59.2615 0095065 225.0601 134.2007  2.00562599 63108
GSAT-15 (GAGAN/PRN 139) 
1 41028U 15065A   24165.38382669 -.00000250  00000+0  00000+0 0  9991
2 41028   0.0563 261.8667 0003662 167.9354  64.0404  1.00273716 31457
GSAT0209 (PRN E09)      
1 41174U 15079A   24164.04939830  .00000026  00000+0  00000+0 0  9998
2 41174  55.4237 121.4558 0005253 315.7499  44.1651  1.70474168 52246
GSAT0208 (PRN E08)      
1 41175U 15079B   24164.26915715  .00000027  00000+0  00000+0 0  9990
2 41175  55.4251 121.4477 0004535 315.2466  44.6748  1.70474121 52661
IRNSS-1E                
1 41241U 16003A   24164.66875122 -.00000301  00000+0  00000+0 0  9999
2 41241  31.6222  73.5484 0018504 182.1773 358.2667  1.00276957 30713
GPS BIIF-12 (PRN 32)    
1 41328U 16007A   24164.95218451  .00000033  00000+0  00000+0 0  9998
2 41328  55.1249 118.6191 0079823 238.9140 120.2749  2.00562161 61116
COSMOS 2514 (751)       
1 41330U 16008A   24164.42299679 -.00000060  00000+0  00000+0 0  9996
2 41330  65.4081 338.1051 0009512 199.6866 160.2845  2.13102751 64963
IRNSS-1F                
1 41384U 16015A   24165.58334260  .00000168  00000+0  00000+0 0  9995
2 41384   3.5628 117.8632 0017462 185.4596 201.5247  1.00274652 30317
BEIDOU-2 IGSO-6 (C13)   
1 41434U 16021A   24164.44400573 -.00000172  00000+0  00000+0 0  9999
2 41434  59.1701  45.3946 0047809 223.1302 248.4612  1.00272362 30118
IRNSS-1G                
1 41469U 16027A   24165.60771808 -.00000325  00000+0  00000+0 0  9994
2 41469   3.4342 119.1139 0005794 331.2118 160.4303  1.00270186 29824
GSAT0211 (PRN E02)      
1 41549U 16030A   24164.97861106 -.00000006  00000+0  00000+0 0  9993
2 41549  55.3662 241.8932 0002775 308.6172  51.4241  1.70474079 50156
GSAT0210 (PRN E01)      
1 41550U 16030B   24164.68330939 -.00000007  00000+0  00000+0 0  9999
2 41550  55.3654 241.9023 0002799 263.7423  96.2924  1.70474096 50140
BEIDOU-2 G7 (C03)       
1 41586U 16037A   24165.62980066 -.00000346  00000+0  00000+0 0  9998
2 41586   1.8991  69.6329 0009122   2.7137 167.2564  1.00277425 29430
E 117 W B (WAAS/PRN 131)
1 41589U 16038B   24164.48971102 -.00000007  00000+0  00000+0 0  9990
2 41589   0.0083 134.3260 0000353 341.3151 204.9517  1.00271286 29307
GSAT0207 (PRN E07)      
1 41859U 16069A   24164.92962476  .00000029  00000+0  00000+0 0  9990
2 41859  55.0887 121.4342 0005490 304.1298  55.7785  1.70474107 47104
GSAT0212 (PRN E03)      
1 41860U 16069B   24164.19733386  .00000026  00000+0  00000+0 0  9994
2 41860  55.0863 121.4509 0004110 326.2520  33.6794  1.70474344 47126
GSAT0213 (PRN E04)      
1 41861U 16069C   24163.97911694  .00000025  00000+0  00000+0 0  9999
2 41861  55.0882 121.4635 0005431 287.3019  72.5955  1.70472968 46989
GSAT0214 (PRN E05)      
1 41862U 16069D   24165.29767251  .00000030  00000+0  00000+0 0  9991
2 41862  55.0875 121.4206 0004449 291.9466  67.9676  1.70474340 47133
SES-15 (WAAS/PRN 133)   
1 42709U 17026A   24165.61647135  .00000069  00000+0  00000+0 0  9992
2 42709   0.0264  34.6624 0000287  23.7390 296.7862  1.00269976    80
QZS-2 (QZSS/PRN 194)    
1 42738U 17028A   24165.54155975 -.00000199  00000+0  00000+0 0  9999
2 42738  40.5784 253.8141 0759804 269.1885  75.1355  1.00285137   261
QZS-3 (QZSS/PRN 199)    
1 42917U 17048A   24165.60213837 -.00000339  00000+0  00000+0 0  9995
2 42917   0.0612 155.9440 0001419 277.0514 173.2083  1.00274857 24906
COSMOS 2522 (752)       
1 42939U 17055A   24165.20198654  .00000025  00000+0  00000+0 0  9993
2 42939  64.0821 216.9034 0009831 240.0162 119.9601  2.13102013 52334
QZS-4 (QZSS/PRN 195)    
1 42965U 17062A   24165.38767272 -.00000354  00000+0  00000+0 0  9993
2 42965  40.5158 352.8342 0746542 271.4965 274.1204  1.00254411 24453
BEIDOU-3 M1 (C19)       
1 43001U 17069A   24164.04290255 -.00000030  00000+0  00000+0 0  9997
2 43001  56.0598  87.4305 0011000 309.1747  50.7231  1.86231643 44913
BEIDOU-3 M2 (C20)       
1 43002U 17069B   24165.05404058 -.00000032  00000+0  00000+0 0  9990
2 43002  56.0595  87.4331 0009194 331.6915  28.2554  1.86231111 44927
GSAT0215 (PRN E21)      
1 43055U 17079A   24161.68135142 -.00000004  00000+0  00000+0 0  9998
2 43055  55.3444 241.8058 0002050 251.4495 108.6006  1.70474856 40411
GSAT0216 (PRN E25)      
1 43056U 17079B   24163.73279048 -.00000008  00000+0  00000+0 0  9995
2 43056  55.3437 241.7493 0003688 267.4548  92.5717  1.70474936 40464
GSAT0217 (PRN E27)      
1 43057U 17079C   24163.95325204 -.00000008  00000+0  00000+0 0  9996
2 43057  55.3417 241.7419 0003409 278.8904  81.1393  1.70474827 40456
GSAT0218 (PRN E31)      
1 43058U 17079D   24163.00014447 -.00000007  00000+0  00000+0 0  9996
2 43058  55.3424 241.7657 0003919 265.9320  94.0936  1.70474908 40461
BEIDOU-3 M7 (C27)       
1 43107U 18003A   24162.11843344 -.00000096  00000+0  00000+0 0  9994
2 43107  54.9409 327.8679 0004867  75.9300 284.1124  1.86232605 43629
BEIDOU-3 M8 (C28)       
1 43108U 18003B   24164.74358208 -.00000091  00000+0  00000+0 0  9991
2 43108  54.9321 327.7633 0002549 253.6622 106.3037  1.86231111 43684
BEIDOU-3 M4 (C22)       
1 43207U 18018A   24165.18488840 -.00000033  00000+0  00000+0 0  9998
2 43207  56.0194  87.4818 0007035 356.4414   3.5503  1.86231588 43073
BEIDOU-3 M3 (C21)       
1 43208U 18018B   24165.25147329 -.00000033  00000+0  00000+0 0  9991
2 43208  56.0188  87.4841 0008951 321.5955  38.3377  1.86231500 43073
BEIDOU-3 M9 (C29)       
1 43245U 18029A   24164.93578921 -.00000090  00000+0  00000+0 0  9997
2 43245  54.8224 325.4790 0000612 129.4065 230.5919  1.86232937 42221
BEIDOU-3 M10 (C30)      
1 43246U 18029B   24162.18072289 -.00000095  00000+0  00000+0 0  9994
2 43246  54.8218 325.6022 0003791  22.9532 337.0505  1.86233026 42158
IRNSS-1I                
1 43286U 18035A   24164.86854861  .00000089  00000+0  00000+0 0  9998
2 43286  29.1057  85.6986 0018222 182.3039   1.2661  1.00274205 22700
COSMOS 2527 (756)       
1 43508U 18053A   24165.16098233  .00000004  00000+0  00000+0 0  9999
2 43508  65.2027  98.4632 0008281 240.8825 119.0293  2.13102400 46631
BEIDOU-2 IGSO-7 (C16)   
1 43539U 18057A   24164.92966112 -.00000058  00000+0  00000+0 0  9990
2 43539  55.1416 169.4046 0075418 233.7146 304.1845  1.00254656 21770
GSAT0221 (PRN E15)      
1 43564U 18060A   24160.55450440 -.00000099  00000+0  00000+0 0  9994
2 43564  57.3039   1.6992 0003031 302.0500  57.9514  1.70475818 36589
GSAT0222 (PRN E33)      
1 43565U 18060B   24164.29255795 -.00000093  00000+0  00000+0 0  9990
2 43565  57.3078   1.6005 0001264 231.7343 128.2828  1.70475669 36682
GSAT0219 (PRN E36)      
1 43566U 18060C   24165.10103091 -.00000090  00000+0  00000+0 0  9990
2 43566  57.3070   1.5806 0001840 333.4034  26.6167  1.70475996 36679
GSAT0220 (PRN E13)      
1 43567U 18060D   24163.56188259 -.00000095  00000+0  00000+0 0  9993
2 43567  57.3069   1.6220 0001843 320.6976  39.3171  1.70475902 36634
BEIDOU-3 M5 (C23)       
1 43581U 18062A   24164.55150979  .00000029  00000+0  00000+0 0  9995
2 43581  54.1326 207.2919 0005205 274.2935  85.7172  1.86228912 39953
BEIDOU-3 M6 (C24)       
1 43582U 18062B   24165.49130939  .00000040  00000+0  00000+0 0  9997
2 43582  54.1321 207.2494 0004171 358.5600   1.5091  1.86229757 39979
BEIDOU-3 M12 (C26)      
1 43602U 18067A   24165.42468591  .00000042  00000+0  00000+0 0  9998
2 43602  54.2229 205.9326 0006661  18.2326 341.8607  1.86231827 39457
BEIDOU-3 M11 (C25)      
1 43603U 18067B   24164.48473413  .00000030  00000+0  00000+0 0  9990
2 43603  54.2198 205.9298 0003656   0.4384 359.6311  1.86231695 39462
